{
  "type": "FeatureCollection",
  "features": [
    {
      "type": "Feature",
      "properties": {
        "norad_id": 66723,
        "name": "FLOCK 4H-20",
        "group": "last-30-days",
        "lat": 73.94124234817924,
        "lon": 39.4300950626637,
        "alt_km": 504.4337469580869,
        "timestamp": "2025-12-20T18:51:30.446370+00:00",
        "meta_object_name": "FLOCK 4H-20",
        "meta_object_id": "2025-276BK",
        "meta_epoch": "2025-12-20T13:46:50.563776",
        "meta_mean_motion": 15.18262017,
        "meta_eccentricity": 0.00026965,
        "meta_inclination": 97.4435,
        "meta_ra_of_asc_node": 66.2346,
        "meta_arg_of_pericenter": 178.9059,
        "meta_mean_anomaly": 181.2181,
        "meta_ephemeris_type": 0,
        "meta_classification_type": "U",
        "meta_norad_cat_id": 66723,
        "meta_element_set_no": 999,
        "meta_rev_at_epoch": 256,
        "meta_bstar": 0.00033027112,
        "meta_mean_motion_dot": 6.7e-05,
        "meta_mean_motion_ddot": 0,
        "tle_line1": "1 66723U 25276BK  25354.57419634  .00006700  00000+0  33027-3 0  9994",
        "tle_line2": "2 66723  97.4435  66.2346 0002696 178.9059 181.2181 15.18262017  2565"
      },
      "geometry": {
        "type": "Point",
        "coordinates": [
          39.4300950626637,
          73.94124234817924
        ]
      }
    },
    {
      "type": "Feature",
      "properties": {
        "norad_id": 66724,
        "name": "FLOCK 4H-21",
        "group": "last-30-days",
        "lat": 76.12500496847896,
        "lon": 34.49093699514957,
        "alt_km": 503.8357407851863,
        "timestamp": "2025-12-20T18:51:30.446382+00:00",
        "meta_object_name": "FLOCK 4H-21",
        "meta_object_id": "2025-276BL",
        "meta_epoch": "2025-12-20T13:46:11.550720",
        "meta_mean_motion": 15.18324449,
        "meta_eccentricity": 0.00022469,
        "meta_inclination": 97.4398,
        "meta_ra_of_asc_node": 66.2218,
        "meta_arg_of_pericenter": 173.6251,
        "meta_mean_anomaly": 186.5012,
        "meta_ephemeris_type": 0,
        "meta_classification_type": "U",
        "meta_norad_cat_id": 66724,
        "meta_element_set_no": 999,
        "meta_rev_at_epoch": 256,
        "meta_bstar": 0.00033117758,
        "meta_mean_motion_dot": 6.731e-05,
        "meta_mean_motion_ddot": 0,
        "tle_line1": "1 66724U 25276BL  25354.57374480  .00006731  00000+0  33118-3 0  9999",
        "tle_line2": "2 66724  97.4398  66.2218 0002246 173.6251 186.5012 15.18324449  2568"
      },
      "geometry": {
        "type": "Point",
        "coordinates": [
          34.49093699514957,
          76.12500496847896
        ]
      }
    },
    {
      "type": "Feature",
      "properties": {
        "norad_id": 66725,
        "name": "FLOCK 4H-22",
        "group": "last-30-days",
        "lat": 13.177771758341603,
        "lon": 64.6455963016652,
        "alt_km": 514.1246052499873,
        "timestamp": "2025-12-20T18:51:30.446392+00:00",
        "meta_object_name": "FLOCK 4H-22",
        "meta_object_id": "2025-276BM",
        "meta_epoch": "2025-12-20T14:03:15.548832",
        "meta_mean_motion": 15.18071649,
        "meta_eccentricity": 0.00030751,
        "meta_inclination": 97.4385,
        "meta_ra_of_asc_node": 66.2018,
        "meta_arg_of_pericenter": 150.0653,
        "meta_mean_anomaly": 210.0757,
        "meta_ephemeris_type": 0,
        "meta_classification_type": "U",
        "meta_norad_cat_id": 66725,
        "meta_element_set_no": 999,
        "meta_rev_at_epoch": 331,
        "meta_bstar": 0.012170367,
        "meta_mean_motion_dot": 0.00256591,
        "meta_mean_motion_ddot": 0,
        "tle_line1": "1 66725U 25276BM  25354.58559663  .00256591  00000+0  12170-1 0  9993",
        "tle_line2": "2 66725  97.4385  66.2018 0003075 150.0653 210.0757 15.18071649  3313"
      },
      "geometry": {
        "type": "Point",
        "coordinates": [
          64.6455963016652,
          13.177771758341603
        ]
      }
    },
    {
      "type": "Feature",
      "properties": {
        "norad_id": 66726,
        "name": "FLOCK 4H-23",
        "group": "last-30-days",
        "lat": -5.806841162707276,
        "lon": 67.17504757229526,
        "alt_km": 518.5365810590984,
        "timestamp": "2025-12-20T18:51:30.446402+00:00",
        "meta_object_name": "FLOCK 4H-23",
        "meta_object_id": "2025-276BN",
        "meta_epoch": "2025-12-20T14:08:08.153664",
        "meta_mean_motion": 15.17198358,
        "meta_eccentricity": 0.00032666,
        "meta_inclination": 97.4452,
        "meta_ra_of_asc_node": 66.2197,
        "meta_arg_of_pericenter": 254.16,
        "meta_mean_anomaly": 105.9273,
        "meta_ephemeris_type": 0,
        "meta_classification_type": "U",
        "meta_norad_cat_id": 66726,
        "meta_element_set_no": 999,
        "meta_rev_at_epoch": 331,
        "meta_bstar": 0.0002788909,
        "meta_mean_motion_dot": 5.476e-05,
        "meta_mean_motion_ddot": 0,
        "tle_line1": "1 66726U 25276BN  25354.58898326  .00005476  00000+0  27889-3 0  9995",
        "tle_line2": "2 66726  97.4452  66.2197 0003266 254.1600 105.9273 15.17198358  3318"
      },
      "geometry": {
        "type": "Point",
        "coordinates": [
          67.17504757229526,
          -5.806841162707276
        ]
      }
    },
    {
      "type": "Feature",
      "properties": {
        "norad_id": 66727,
        "name": "FLOCK 4H-24",
        "group": "last-30-days",
        "lat": 2.4796379249392704,
        "lon": 66.09450896716697,
        "alt_km": 516.6878249785495,
        "timestamp": "2025-12-20T18:51:30.446411+00:00",
        "meta_object_name": "FLOCK 4H-24",
        "meta_object_id": "2025-276BP",
        "meta_epoch": "2025-12-20T14:05:57.076224",
        "meta_mean_motion": 15.17304106,
        "meta_eccentricity": 0.00027477,
        "meta_inclination": 97.445,
        "meta_ra_of_asc_node": 66.2241,
        "meta_arg_of_pericenter": 274.8845,
        "meta_mean_anomaly": 85.2074,
        "meta_ephemeris_type": 0,
        "meta_classification_type": "U",
        "meta_norad_cat_id": 66727,
        "meta_element_set_no": 999,
        "meta_rev_at_epoch": 331,
        "meta_bstar": 0.00033421335,
        "meta_mean_motion_dot": 6.596e-05,
        "meta_mean_motion_ddot": 0,
        "tle_line1": "1 66727U 25276BP  25354.58746616  .00006596  00000+0  33421-3 0  9993",
        "tle_line2": "2 66727  97.4450  66.2241 0002747 274.8845  85.2074 15.17304106  3319"
      },
      "geometry": {
        "type": "Point",
        "coordinates": [
          66.09450896716697,
          2.4796379249392704
        ]
      }
    },
    {
      "type": "Feature",
      "properties": {
        "norad_id": 66728,
        "name": "FLOCK 4H-25",
        "group": "last-30-days",
        "lat": 71.38114340224756,
        "lon": 43.60817793422813,
        "alt_km": 503.66352637710224,
        "timestamp": "2025-12-20T18:51:30.446422+00:00",
        "meta_object_name": "FLOCK 4H-25",
        "meta_object_id": "2025-276BQ",
        "meta_epoch": "2025-12-20T13:47:35.107296",
        "meta_mean_motion": 15.18185501,
        "meta_eccentricity": 0.00015832,
        "meta_inclination": 97.4408,
        "meta_ra_of_asc_node": 66.2259,
        "meta_arg_of_pericenter": 117.7403,
        "meta_mean_anomaly": 242.3992,
        "meta_ephemeris_type": 0,
        "meta_classification_type": "U",
        "meta_norad_cat_id": 66728,
        "meta_element_set_no": 999,
        "meta_rev_at_epoch": 259,
        "meta_bstar": 0.0003193935,
        "meta_mean_motion_dot": 6.463e-05,
        "meta_mean_motion_ddot": 0,
        "tle_line1": "1 66728U 25276BQ  25354.57471189  .00006463  00000+0  31939-3 0  9998",
        "tle_line2": "2 66728  97.4408  66.2259 0001583 117.7403 242.3992 15.18185501  2595"
      },
      "geometry": {
        "type": "Point",
        "coordinates": [
          43.60817793422813,
          71.38114340224756
        ]
      }
    },
    {
      "type": "Feature",
      "properties": {
        "norad_id": 66729,
        "name": "FLOCK 4H-26",
        "group": "last-30-days",
        "lat": -13.336526173380284,
        "lon": 68.17146387755975,
        "alt_km": 518.4264236735271,
        "timestamp": "2025-12-20T18:51:30.446432+00:00",
        "meta_object_name": "FLOCK 4H-26",
        "meta_object_id": "2025-276BR",
        "meta_epoch": "2025-12-20T11:00:10.417824",
        "meta_mean_motion": 15.171282,
        "meta_eccentricity": 0.0003552,
        "meta_inclination": 97.4406,
        "meta_ra_of_asc_node": 66.0747,
        "meta_arg_of_pericenter": 274.9943,
        "meta_mean_anomaly": 85.0884,
        "meta_ephemeris_type": 0,
        "meta_classification_type": "U",
        "meta_norad_cat_id": 66729,
        "meta_element_set_no": 999,
        "meta_rev_at_epoch": 329,
        "meta_bstar": 0.00040395568,
        "meta_mean_motion_dot": 7.949e-05,
        "meta_mean_motion_ddot": 0,
        "tle_line1": "1 66729U 25276BR  25354.45845391  .00007949  00000+0  40396-3 0  9993",
        "tle_line2": "2 66729  97.4406  66.0747 0003552 274.9943  85.0884 15.17128200  3299"
      },
      "geometry": {
        "type": "Point",
        "coordinates": [
          68.17146387755975,
          -13.336526173380284
        ]
      }
    }
  ]
}